ONEWEB-0319             
1 49105U 21075AG  24313.02211003  .00000058  00000+0  11632-3 0  9994
2 49105  87.9071 122.6562 0001336 109.0808 251.0469 13.17647949157401
ONEWEB-0323             
1 49106U 21075AH  24313.38677694 -.00000325  00000+0 -93957-3 0  9995
2 49106  87.8846 107.3106 0001389 127.5514 232.5741 13.12440143158716
ONEWEB-0329             
1 49107U 21075AJ  24313.03055434  .00000015  00000+0  59146-5 0  9998
2 49107  87.9072 122.6588 0001341  94.8700 265.2585 13.17647719157388
ONEWEB-0330             
1 49108U 21075AK  24313.71566598  .00000051  00000+0  98393-4 0  9998
2 49108  87.9069 122.5236 0001325  88.8792 271.2491 13.17647323157519
ONEWEB-0292             
1 49186U 21083A   24313.58712670  .00000167  00000+0  42277-3 0  9999
2 49186  87.8916  76.7437 0001644 106.2108 253.9202 13.13470639155344
ONEWEB-0303             
1 49187U 21083B   24313.38660876  .00000078  00000+0  16565-3 0  9990
2 49187  87.9083  92.0264 0001545 104.2214 255.9090 13.18684494154051
ONEWEB-0306             
1 49188U 21083C   24313.68062943  .00000221  00000+0  52808-3 0  9995
2 49188  87.9082  91.9539 0001497  89.5792 270.5512 13.18688822154136
ONEWEB-0307             
1 49189U 21083D   24313.35304406  .00000185  00000+0  47032-3 0  9995
2 49189  87.8915  76.7919 0001393  87.8935 272.2354 13.13470539155312
